{
"type": "FeatureCollection",
"name": "libraries",
"crs": { "type": "name", "properties": { "name": "urn:ogc:def:crs:OGC:1.3:CRS84" } },
"features": [
{ "type": "Feature", "properties": { "element": "node", "id": 368170942, "name": "Salk Institute Library", "amenity": "library", "operator": null, "opening_hours": null, "wikidata": null }, "geometry": { "type": "Point", "coordinates": [ -117.246147, 32.886991 ] } },
{ "type": "Feature", "properties": { "element": "node", "id": 368170945, "name": "Athenaeum Music and Arts Library", "amenity": "library", "operator": null, "opening_hours": null, "wikidata": "Q4813395" }, "geometry": { "type": "Point", "coordinates": [ -117.274204, 32.8469917 ] } },
{ "type": "Feature", "properties": { "element": "node", "id": 368170946, "name": "Helen Palmer Geisel Library", "amenity": "library", "operator": null, "opening_hours": null, "wikidata": null }, "geometry": { "type": "Point", "coordinates": [ -117.277815300000015, 32.8456029 ] } },
{ "type": "Feature", "properties": { "element": "node", "id": 368170962, "name": "Balboa Branch San Diego Public Library", "amenity": "library", "operator": null, "opening_hours": "Mo, Th, Fr 9:30-18:00; Tu, We 11:30-20:00; Sa 9:30-15:00", "wikidata": "Q66362873" }, "geometry": { "type": "Point", "coordinates": [ -117.1749653, 32.822320400000017 ] } },
{ "type": "Feature", "properties": { "element": "node", "id": 368170965, "name": "Benjamin Branch San Diego Public Library", "amenity": "library", "operator": null, "opening_hours": "Mo, Th, Fr 9:30-18:00; Tu, We 11:30-20:00; Sa 9:30-15:00", "wikidata": null }, "geometry": { "type": "Point", "coordinates": [ -117.0814929, 32.7930662 ] } },
{ "type": "Feature", "properties": { "element": "node", "id": 368170966, "name": "Tierrasanta Branch San Diego Public Library", "amenity": "library", "operator": "City of San Diego", "opening_hours": "Mo, Th, Fr 9:30-18:00; Tu, We 11:30-20:00; Sa 9:30-15:00", "wikidata": null }, "geometry": { "type": "Point", "coordinates": [ -117.098087100000015, 32.8208823 ] } },
{ "type": "Feature", "properties": { "element": "node", "id": 368170967, "name": "Institute for World Understanding of Peoples, Cultures and Languages Library", "amenity": "library", "operator": null, "opening_hours": null, "wikidata": null }, "geometry": { "type": "Point", "coordinates": [ -117.277815300000015, 32.8464362 ] } },
{ "type": "Feature", "properties": { "element": "node", "id": 368170968, "name": "Jean Farb Memorial Medical Library", "amenity": "library", "operator": null, "opening_hours": null, "wikidata": null }, "geometry": { "type": "Point", "coordinates": [ -117.1597557, 32.7514393 ] } },
{ "type": "Feature", "properties": { "element": "node", "id": 368170969, "name": "University Community Branch San Diego Public Library", "amenity": "library", "operator": "City of San Diego", "opening_hours": "Mo, Th, Fr 9:30-18:00; Tu, We 11:30-20:00; Sa 9:30-15:00", "wikidata": "Q66362907" }, "geometry": { "type": "Point", "coordinates": [ -117.200979, 32.853995 ] } },
{ "type": "Feature", "properties": { "element": "node", "id": 368170970, "name": "North Clairemont Branch San Diego Public Library", "amenity": "library", "operator": "City of San Diego", "opening_hours": "Tu 11:30-20:00; We-Sa 09:30-18:00", "wikidata": "Q66362888" }, "geometry": { "type": "Point", "coordinates": [ -117.206457, 32.8283728 ] } },
{ "type": "Feature", "properties": { "element": "node", "id": 368170972, "name": "Linda Vista Branch San Diego Public Library", "amenity": "library", "operator": "City of San Diego", "opening_hours": "Mo, Th, Fr 9:30-18:00; Tu, We 11:30-20:00; Sa 9:30-15:00", "wikidata": "Q66362881" }, "geometry": { "type": "Point", "coordinates": [ -117.17004, 32.783262 ] } },
{ "type": "Feature", "properties": { "element": "node", "id": 368170974, "name": "University Heights Branch San Diego Public Library", "amenity": "library", "operator": "City of San Diego", "opening_hours": "Mo, Th, Fr 9:30-18:00; Tu, We 11:30-20:00; Sa 9:30-15:00", "wikidata": null }, "geometry": { "type": "Point", "coordinates": [ -117.14593, 32.7538404 ] } },
{ "type": "Feature", "properties": { "element": "node", "id": 368170985, "name": "Jerry MacMullen Library", "amenity": "library", "operator": "San Diego Maritime Museum", "opening_hours": null, "wikidata": null }, "geometry": { "type": "Point", "coordinates": [ -117.1741042, 32.7209254 ] } },
{ "type": "Feature", "properties": { "element": "node", "id": 368170986, "name": "San Diego County Law Library", "amenity": "library", "operator": null, "opening_hours": null, "wikidata": null }, "geometry": { "type": "Point", "coordinates": [ -117.164410600000011, 32.7169882 ] } },
{ "type": "Feature", "properties": { "element": "node", "id": 368170992, "name": "Paul Whittier Historical Aviation Library", "amenity": "library", "operator": null, "opening_hours": null, "wikidata": null }, "geometry": { "type": "Point", "coordinates": [ -117.1544924, 32.72609 ] } },
{ "type": "Feature", "properties": { "element": "node", "id": 368170993, "name": "Ocean Beach Branch San Diego Public Library", "amenity": "library", "operator": "City of San Diego", "opening_hours": "Mo, Th, Fr 9:30-18:00; Tu, We 11:30-20:00; Sa 9:30-15:00", "wikidata": "Q66362892" }, "geometry": { "type": "Point", "coordinates": [ -117.247211900000011, 32.7454845 ] } },
{ "type": "Feature", "properties": { "element": "node", "id": 368171005, "name": "Oak Park Branch San Diego Public Library", "amenity": "library", "operator": "City of San Diego", "opening_hours": "Mo, Th, Fr 9:30-18:00; Tu, We 11:30-20:00; Sa 9:30-15:00", "wikidata": null }, "geometry": { "type": "Point", "coordinates": [ -117.08003, 32.7350515 ] } },
{ "type": "Feature", "properties": { "element": "node", "id": 368171205, "name": "Library Towers", "amenity": "library", "operator": null, "opening_hours": null, "wikidata": null }, "geometry": { "type": "Point", "coordinates": [ -117.1604329, 32.7109787 ] } },
{ "type": "Feature", "properties": { "element": "node", "id": 368171206, "name": "Mountain View-Beckworth Branch San Diego City Public Library", "amenity": "library", "operator": "City of San Diego", "opening_hours": "Mo, Th, Fr 9:30-18:00; Tu, We 11:30-20:00; Sa 9:30-15:00", "wikidata": null }, "geometry": { "type": "Point", "coordinates": [ -117.102606, 32.698013 ] } },
{ "type": "Feature", "properties": { "element": "node", "id": 368171210, "name": "Law Library Justice Foundation of San Diego", "amenity": "library", "operator": null, "opening_hours": null, "wikidata": null }, "geometry": { "type": "Point", "coordinates": [ -117.1646198, 32.7170133 ] } },
{ "type": "Feature", "properties": { "element": "node", "id": 368171216, "name": "San Carlos Library", "amenity": "library", "operator": "City of San Diego", "opening_hours": "Mo, Th, Fr 9:30-18:00; Tu, We 11:30-20:00; Sa 9:30-15:00", "wikidata": null }, "geometry": { "type": "Point", "coordinates": [ -117.0406498, 32.8019999 ] } },
{ "type": "Feature", "properties": { "element": "node", "id": 368171221, "name": "Alliant International University of San Diego Library", "amenity": "library", "operator": null, "opening_hours": null, "wikidata": null }, "geometry": { "type": "Point", "coordinates": [ -117.0951333, 32.89680950000001 ] } },
{ "type": "Feature", "properties": { "element": "node", "id": 368174639, "name": "San Diego Air & Space Museum Library and Archive", "amenity": "library", "operator": null, "opening_hours": null, "wikidata": null }, "geometry": { "type": "Point", "coordinates": [ -117.1543532, 32.7264309 ] } },
{ "type": "Feature", "properties": { "element": "node", "id": 596158591, "name": "San Ysidro Branch Library", "amenity": "library", "operator": "City of San Diego", "opening_hours": null, "wikidata": "Q66362901" }, "geometry": { "type": "Point", "coordinates": [ -117.043272, 32.5578309 ] } },
{ "type": "Feature", "properties": { "element": "node", "id": 596184365, "name": "La Jolla/Riford Library", "amenity": "library", "operator": null, "opening_hours": null, "wikidata": null }, "geometry": { "type": "Point", "coordinates": [ -117.2760792, 32.8407242 ] } },
{ "type": "Feature", "properties": { "element": "node", "id": 596262061, "name": "Skyline Hills Branch San Diego Public Library", "amenity": "library", "operator": "City of San Diego", "opening_hours": "Mo, Th, Fr 9:30-18:00; Tu, We 11:30-20:00; Sa 9:30-15:00", "wikidata": "Q66362905" }, "geometry": { "type": "Point", "coordinates": [ -117.026682, 32.697772 ] } },
{ "type": "Feature", "properties": { "element": "node", "id": 596499269, "name": "North Park Branch San Diego Public Library", "amenity": "library", "operator": "City of San Diego", "opening_hours": "Mo, Th, Fr 9:30-18:00; Tu, We 11:30-20:00; Sa 9:30-15:00", "wikidata": "Q66362889" }, "geometry": { "type": "Point", "coordinates": [ -117.126847, 32.74727 ] } },
{ "type": "Feature", "properties": { "element": "node", "id": 596501397, "name": "Kinsella Library", "amenity": "library", "operator": null, "opening_hours": null, "wikidata": null }, "geometry": { "type": "Point", "coordinates": [ -117.271512, 32.844273 ] } },
{ "type": "Feature", "properties": { "element": "node", "id": 2053874881, "name": "Copley Library", "amenity": "library", "operator": null, "opening_hours": "Mo-Th 07:00-02:00; Fr 07:00-18:00; Sat 09:00-21:00; Su 12:00-02:00", "wikidata": "Q122540447" }, "geometry": { "type": "Point", "coordinates": [ -117.193451, 32.7714119 ] } },
{ "type": "Feature", "properties": { "element": "node", "id": 4777387246, "name": "Pardee Legal Research Center", "amenity": "library", "operator": "University of San Diego School of Law", "opening_hours": null, "wikidata": "Q122348857" }, "geometry": { "type": "Point", "coordinates": [ -117.187467199999986, 32.77170120000001 ] } },
{ "type": "Feature", "properties": { "element": "node", "id": 6832952613, "name": "MCRD Library", "amenity": "library", "operator": null, "opening_hours": "Mo-Th 07:30-19:00; Fr 07:30-17:00; Sa 09:00-17:00; PH off", "wikidata": null }, "geometry": { "type": "Point", "coordinates": [ -117.2012117, 32.7429082 ] } },
{ "type": "Feature", "properties": { "element": "node", "id": 6858384938, "name": "The Recyard", "amenity": "library", "operator": null, "opening_hours": "Mo-Th 11:00-23:00; Fr 11:00-24:00; Sa 09:00-24:00; Su 09:00-23:00", "wikidata": null }, "geometry": { "type": "Point", "coordinates": [ -117.124127800000011, 32.6877982 ] } },
{ "type": "Feature", "properties": { "element": "node", "id": 8726804043, "name": "San Diego Public Library, Mission Hills-Hillcrest Branch", "amenity": "library", "operator": "City of San Diego", "opening_hours": null, "wikidata": null }, "geometry": { "type": "Point", "coordinates": [ -117.165356, 32.7496715 ] } },
{ "type": "Feature", "properties": { "element": "relation", "id": 7845655, "name": "Otay Mesa Branch San Diego Public Library", "amenity": "library", "operator": "City of San Diego", "opening_hours": "Mo, Th, Fr 9:30-18:00; Tu, We 11:30-20:00; Sa 9:30-18:00; Su 12:30-17:00", "wikidata": "Q66362893" }, "geometry": { "type": "Point", "coordinates": [ -117.067998166822662, 32.576723284553857 ] } },
{ "type": "Feature", "properties": { "element": "way", "id": 31801062, "name": "Alliant International University of San Diego Library", "amenity": "library", "operator": null, "opening_hours": null, "wikidata": null }, "geometry": { "type": "Point", "coordinates": [ -117.095115082643389, 32.896752510924742 ] } },
{ "type": "Feature", "properties": { "element": "way", "id": 31801743, "name": "Mission Hills Branch San Diego Public Library", "amenity": "library", "operator": "City of San Diego", "opening_hours": "Mo, Th, Fr 9:30-18:00; Tu, We 11:30-20:00; Sa 9:30-15:00", "wikidata": null }, "geometry": { "type": "Point", "coordinates": [ -117.171957757067091, 32.749601352240667 ] } },
{ "type": "Feature", "properties": { "element": "way", "id": 31803078, "name": "Paradise Hills Branch San Diego Public Library", "amenity": "library", "operator": "City of San Diego", "opening_hours": "Mo, Th, Fr 9:30-18:00; Tu, We 11:30-20:00; Sa 9:30-15:00", "wikidata": "Q66362895" }, "geometry": { "type": "Point", "coordinates": [ -117.061204431642338, 32.672676301914649 ] } },
{ "type": "Feature", "properties": { "element": "way", "id": 31803256, "name": "Logan Heights Branch San Diego Public Library", "amenity": "library", "operator": "City of San Diego", "opening_hours": "Mo, Th, Fr 9:30-18:00; Tu, We 11:30-20:00; Sa 9:30-18:00; Su 12:30-17:00", "wikidata": null }, "geometry": { "type": "Point", "coordinates": [ -117.133632433940448, 32.697345337402588 ] } },
{ "type": "Feature", "properties": { "element": "way", "id": 31803502, "name": "Clairemont Library", "amenity": "library", "operator": "City of San Diego", "opening_hours": "We-Sa 09:30-18:00; Tu 11:30-20:00", "wikidata": "Q66362877" }, "geometry": { "type": "Point", "coordinates": [ -117.193983547671252, 32.793590098625778 ] } },
{ "type": "Feature", "properties": { "element": "way", "id": 31806646, "name": "Scripps Miramar Ranch Library", "amenity": "library", "operator": "City of San Diego", "opening_hours": "Mo, Th, Fr 9:30-18:00; Tu, We 11:30-20:00; Sa 9:30-15:00", "wikidata": "Q66362902" }, "geometry": { "type": "Point", "coordinates": [ -117.105186715508239, 32.911171905042565 ] } },
{ "type": "Feature", "properties": { "element": "way", "id": 31807030, "name": null, "amenity": "library", "operator": null, "opening_hours": null, "wikidata": null }, "geometry": { "type": "Point", "coordinates": [ -117.083329771918685, 32.567244336843146 ] } },
{ "type": "Feature", "properties": { "element": "way", "id": 31808246, "name": "Pacific Beach/Taylor Library", "amenity": "library", "operator": "City of San Diego", "opening_hours": "Mo, Tu, 11:30-20:00; Tu-Sa 9:30-18:00", "wikidata": "Q66362894" }, "geometry": { "type": "Point", "coordinates": [ -117.249965126745124, 32.794184013635302 ] } },
{ "type": "Feature", "properties": { "element": "way", "id": 31809213, "name": "Point Loma/Hervey Library", "amenity": "library", "operator": "City of San Diego", "opening_hours": "Mo, Th, Fr 9:30-18:00; Tu, We 11:30-20:00; Sa 9:30-18:00; Su 12:30-17:00", "wikidata": null }, "geometry": { "type": "Point", "coordinates": [ -117.229424959788432, 32.740093830411723 ] } },
{ "type": "Feature", "properties": { "element": "way", "id": 31810207, "name": "Normal Heights-Kensington Branch San Diego Public Library", "amenity": "library", "operator": "City of San Diego", "opening_hours": "Mo,Tu 11:30-20:00; We-Sa 09:30-18:00", "wikidata": "Q66362879" }, "geometry": { "type": "Point", "coordinates": [ -117.106865392294608, 32.763029006246356 ] } },
{ "type": "Feature", "properties": { "element": "way", "id": 31816371, "name": "La Jolla Branch San Diego Public Library", "amenity": "library", "operator": null, "opening_hours": null, "wikidata": null }, "geometry": { "type": "Point", "coordinates": [ -117.274203723637697, 32.84697558093449 ] } },
{ "type": "Feature", "properties": { "element": "way", "id": 31817447, "name": null, "amenity": "library", "operator": null, "opening_hours": null, "wikidata": null }, "geometry": { "type": "Point", "coordinates": [ -117.065612040209814, 32.997786155743825 ] } },
{ "type": "Feature", "properties": { "element": "way", "id": 31817608, "name": "La Jolla/Riford Library", "amenity": "library", "operator": "City of San Diego", "opening_hours": "Mo, Th, Fr 9:30-18:00; Tu, We 11:30-20:00; Sa 9:30-18:00; Su 12:30-17:00", "wikidata": "Q66362880" }, "geometry": { "type": "Point", "coordinates": [ -117.276089298197377, 32.840764988288882 ] } },
{ "type": "Feature", "properties": { "element": "way", "id": 31817913, "name": "Malcom A. Love Library", "amenity": "library", "operator": null, "opening_hours": null, "wikidata": null }, "geometry": { "type": "Point", "coordinates": [ -117.071170199557457, 32.775259563882258 ] } },
{ "type": "Feature", "properties": { "element": "way", "id": 31818189, "name": "Rancho Bernardo Branch Library", "amenity": "library", "operator": "City of San Diego", "opening_hours": "We-Sa 09:30-18:00; Mo-Tu 11:30-20:00", "wikidata": "Q66362898" }, "geometry": { "type": "Point", "coordinates": [ -117.075278724313804, 33.024933576084308 ] } },
{ "type": "Feature", "properties": { "element": "way", "id": 31818465, "name": "Rancho Peñasquitos Library", "amenity": "library", "operator": "City of San Diego", "opening_hours": "We-Sa 09:30-18:00; Mo,Tu 11:30-20:00", "wikidata": "Q66362899" }, "geometry": { "type": "Point", "coordinates": [ -117.122136188145646, 32.95801649859564 ] } },
{ "type": "Feature", "properties": { "element": "way", "id": 31818863, "name": "Carmel Mountain Ranch Branch Library", "amenity": "library", "operator": null, "opening_hours": "Mo, Th, Fr 9:30-18:00; Tu, We 11:30-20:00; Sa 9:30-15:00", "wikidata": "Q66362874" }, "geometry": { "type": "Point", "coordinates": [ -117.073807216124095, 32.981691747375926 ] } },
{ "type": "Feature", "properties": { "element": "way", "id": 31819755, "name": "Carmel Valley Library", "amenity": "library", "operator": "City of San Diego", "opening_hours": "Mo-Tu 11:30-20:00; We-Sa 09:30-18:00", "wikidata": "Q66362875" }, "geometry": { "type": "Point", "coordinates": [ -117.230810243766598, 32.95221324232066 ] } },
{ "type": "Feature", "properties": { "element": "way", "id": 31840107, "name": "City Heights-Weingart Branch San Diego City Library", "amenity": "library", "operator": "City of San Diego", "opening_hours": "Mo,Th,Fr 09:30-18:00; Tu,We 11:30-20:00; Sa 09:30-18:00; Su 12:30-17:00", "wikidata": null }, "geometry": { "type": "Point", "coordinates": [ -117.100306303839133, 32.74747269748579 ] } },
{ "type": "Feature", "properties": { "element": "way", "id": 42854054, "name": "WongAvery Library", "amenity": "library", "operator": null, "opening_hours": null, "wikidata": "Q71143792" }, "geometry": { "type": "Point", "coordinates": [ -117.236975380767035, 32.875346251857742 ] } },
{ "type": "Feature", "properties": { "element": "way", "id": 48980200, "name": "Cabrillo National Monument Library", "amenity": "library", "operator": null, "opening_hours": null, "wikidata": null }, "geometry": { "type": "Point", "coordinates": [ -117.239509023307406, 32.674485685649067 ] } },
{ "type": "Feature", "properties": { "element": "way", "id": 101292629, "name": "North University Community Branch San Diego Public Library", "amenity": "library", "operator": "City of San Diego", "opening_hours": "Mo, Th, Fr 9:30-18:00; Tu, We 11:30-20:00; Sa 9:30-18:00; Su 12:30-17:00", "wikidata": "Q66362890" }, "geometry": { "type": "Point", "coordinates": [ -117.199149002255226, 32.867631076073458 ] } },
{ "type": "Feature", "properties": { "element": "way", "id": 159385495, "name": "Geisel Library", "amenity": "library", "operator": "University of California, San Diego", "opening_hours": null, "wikidata": "Q63969880" }, "geometry": { "type": "Point", "coordinates": [ -117.237580271110232, 32.881138383640753 ] } },
{ "type": "Feature", "properties": { "element": "way", "id": 264398285, "name": "Media Center", "amenity": "library", "operator": null, "opening_hours": null, "wikidata": null }, "geometry": { "type": "Point", "coordinates": [ -117.188945621312243, 32.959181824817485 ] } },
{ "type": "Feature", "properties": { "element": "way", "id": 279875263, "name": "Mira Mesa Branch San Diego Public Library", "amenity": "library", "operator": "City of San Diego", "opening_hours": "Mo-Tu 11:30-20:00; We-Sa 09:30-18:00; Su off", "wikidata": "Q66362883" }, "geometry": { "type": "Point", "coordinates": [ -117.142704807621456, 32.915228815098118 ] } },
{ "type": "Feature", "properties": { "element": "way", "id": 333014664, "name": "Serra Mesa-Kearny Mesa Library", "amenity": "library", "operator": "City of San Diego", "opening_hours": "Mo, Th, Fr 9:30-18:00; Tu, We 11:30-20:00; Sa 9:30-18:00; Su 12:30-17:00", "wikidata": "Q66362904" }, "geometry": { "type": "Point", "coordinates": [ -117.133690045819151, 32.809175752223226 ] } },
{ "type": "Feature", "properties": { "element": "way", "id": 377357193, "name": "San Diego Central Library", "amenity": "library", "operator": "City of San Diego", "opening_hours": "Mo-Tu 11:30-20:00; We-Sa 09:30-18:00; Su 13:00-17:00", "wikidata": "Q33104628" }, "geometry": { "type": "Point", "coordinates": [ -117.154204225375864, 32.708916912511995 ] } },
{ "type": "Feature", "properties": { "element": "way", "id": 384267837, "name": null, "amenity": "library", "operator": null, "opening_hours": null, "wikidata": null }, "geometry": { "type": "Point", "coordinates": [ -117.222962563184396, 32.914006559588849 ] } },
{ "type": "Feature", "properties": { "element": "way", "id": 544279020, "name": "College Rolando Library", "amenity": "library", "operator": "City of San Diego", "opening_hours": "Mo, Th, Fr 9:30-18:00; Tu, We 11:30-20:00; Sa 9:30-15:00", "wikidata": null }, "geometry": { "type": "Point", "coordinates": [ -117.056105607399189, 32.769390662504811 ] } },
{ "type": "Feature", "properties": { "element": "way", "id": 593942576, "name": null, "amenity": "library", "operator": "Del Norte High School", "opening_hours": null, "wikidata": null }, "geometry": { "type": "Point", "coordinates": [ -117.121984680254542, 33.01477585098494 ] } },
{ "type": "Feature", "properties": { "element": "way", "id": 663867272, "name": "San Diego Public Library - Mission Valley Branch", "amenity": "library", "operator": "City of San Diego", "opening_hours": "Mo,Tu 11:30-20:00; We-Sa 09:30-18:00; Su 13:00-17:00", "wikidata": "Q66362886" }, "geometry": { "type": "Point", "coordinates": [ -117.126904032897286, 32.779302139255407 ] } },
{ "type": "Feature", "properties": { "element": "way", "id": 782840448, "name": null, "amenity": "library", "operator": null, "opening_hours": null, "wikidata": null }, "geometry": { "type": "Point", "coordinates": [ -117.043198937843741, 32.557751953184862 ] } },
{ "type": "Feature", "properties": { "element": "way", "id": 977477849, "name": null, "amenity": "library", "operator": null, "opening_hours": null, "wikidata": null }, "geometry": { "type": "Point", "coordinates": [ -117.112299083728971, 32.907757412206202 ] } },
{ "type": "Feature", "properties": { "element": "way", "id": 1056916214, "name": null, "amenity": "library", "operator": null, "opening_hours": null, "wikidata": null }, "geometry": { "type": "Point", "coordinates": [ -117.277722940930374, 32.846425248414214 ] } },
{ "type": "Feature", "properties": { "element": "way", "id": 1057041602, "name": null, "amenity": "library", "operator": null, "opening_hours": null, "wikidata": null }, "geometry": { "type": "Point", "coordinates": [ -117.271478300042389, 32.844282300090491 ] } },
{ "type": "Feature", "properties": { "element": "way", "id": 1236025297, "name": "4200 Student Center / Library", "amenity": "library", "operator": null, "opening_hours": null, "wikidata": null }, "geometry": { "type": "Point", "coordinates": [ -116.968923054877465, 32.562803813821425 ] } },
{ "type": "Feature", "properties": { "element": "way", "id": 1236838362, "name": "Pacific Highlands Ranch Library", "amenity": "library", "operator": "City of San Diego", "opening_hours": "Tu 11:30-20:00; We-Sa 09:30-18:00", "wikidata": null }, "geometry": { "type": "Point", "coordinates": [ -117.187557628907257, 32.961348337921969 ] } }
]
}
